[{"OBJECT_NAME":"ONEWEB-0358","OBJECT_ID":"2021-090F","EPOCH":"2026-03-02T15:59:34.043136","MEAN_MOTION":13.20771905,"ECCENTRICITY":0.0001597,"INCLINATION":87.9184,"RA_OF_ASC_NODE":295.7044,"ARG_OF_PERICENTER":78.1844,"MEAN_ANOMALY":281.9468,"EPHEMERIS_TYPE":0,"CLASSIFICATION_TYPE":"U","NORAD_CAT_ID":49284,"ELEMENT_SET_NO":999,"REV_AT_EPOCH":21649,"BSTAR":0.0002675,"MEAN_MOTION_DOT":1.22e-6,"MEAN_MOTION_DDOT":0},{"OBJECT_NAME":"ONEWEB-0359","OBJECT_ID":"2021-090G","EPOCH":"2026-03-02T15:55:00.836832","MEAN_MOTION":13.20770008,"ECCENTRICITY":0.0001816,"INCLINATION":87.9185,"RA_OF_ASC_NODE":295.7018,"ARG_OF_PERICENTER":77.1574,"MEAN_ANOMALY":282.9762,"EPHEMERIS_TYPE":0,"CLASSIFICATION_TYPE":"U","NORAD_CAT_ID":49285,"ELEMENT_SET_NO":999,"REV_AT_EPOCH":21647,"BSTAR":0.00016923,"MEAN_MOTION_DOT":8.2e-7,"MEAN_MOTION_DDOT":0},{"OBJECT_NAME":"ONEWEB-0360","OBJECT_ID":"2021-090H","EPOCH":"2026-03-02T15:41:21.962688","MEAN_MOTION":13.20772781,"ECCENTRICITY":0.0001744,"INCLINATION":87.9182,"RA_OF_ASC_NODE":295.711,"ARG_OF_PERICENTER":80.427,"MEAN_ANOMALY":279.706,"EPHEMERIS_TYPE":0,"CLASSIFICATION_TYPE":"U","NORAD_CAT_ID":49286,"ELEMENT_SET_NO":999,"REV_AT_EPOCH":21578,"BSTAR":-2.3067e-5,"MEAN_MOTION_DOT":4.0e-8,"MEAN_MOTION_DDOT":0},{"OBJECT_NAME":"ONEWEB-0361","OBJECT_ID":"2021-090J","EPOCH":"2026-03-02T17:03:11.439648","MEAN_MOTION":13.20772577,"ECCENTRICITY":0.000148,"INCLINATION":87.9183,"RA_OF_ASC_NODE":295.6968,"ARG_OF_PERICENTER":78.1124,"MEAN_ANOMALY":282.0175,"EPHEMERIS_TYPE":0,"CLASSIFICATION_TYPE":"U","NORAD_CAT_ID":49287,"ELEMENT_SET_NO":999,"REV_AT_EPOCH":21624,"BSTAR":0.00020078,"MEAN_MOTION_DOT":9.5e-7,"MEAN_MOTION_DDOT":0},{"OBJECT_NAME":"ONEWEB-0362","OBJECT_ID":"2021-090K","EPOCH":"2026-03-02T17:31:50.913696","MEAN_MOTION":13.19725884,"ECCENTRICITY":0.0001927,"INCLINATION":87.9238,"RA_OF_ASC_NODE":326.1858,"ARG_OF_PERICENTER":83.8714,"MEAN_ANOMALY":276.2638,"EPHEMERIS_TYPE":0,"CLASSIFICATION_TYPE":"U","NORAD_CAT_ID":49288,"ELEMENT_SET_NO":999,"REV_AT_EPOCH":21287,"BSTAR":-3.0952e-5,"MEAN_MOTION_DOT":1.0e-8,"MEAN_MOTION_DDOT":0},{"OBJECT_NAME":"ONEWEB-0363","OBJECT_ID":"2021-090L","EPOCH":"2026-03-02T15:36:51.022656","MEAN_MOTION":13.20773441,"ECCENTRICITY":0.000139,"INCLINATION":87.9183,"RA_OF_ASC_NODE":295.7095,"ARG_OF_PERICENTER":72.2181,"MEAN_ANOMALY":287.9104,"EPHEMERIS_TYPE":0,"CLASSIFICATION_TYPE":"U","NORAD_CAT_ID":49289,"ELEMENT_SET_NO":999,"REV_AT_EPOCH":21624,"BSTAR":6.6548e-5,"MEAN_MOTION_DOT":4.0e-7,"MEAN_MOTION_DDOT":0},{"OBJECT_NAME":"ONEWEB-0364","OBJECT_ID":"2021-090M","EPOCH":"2026-03-02T16:31:22.963872","MEAN_MOTION":13.20771866,"ECCENTRICITY":0.0001544,"INCLINATION":87.9171,"RA_OF_ASC_NODE":295.7174,"ARG_OF_PERICENTER":80.0991,"MEAN_ANOMALY":280.0316,"EPHEMERIS_TYPE":0,"CLASSIFICATION_TYPE":"U","NORAD_CAT_ID":49290,"ELEMENT_SET_NO":999,"REV_AT_EPOCH":21738,"BSTAR":0.00022773,"MEAN_MOTION_DOT":1.06e-6,"MEAN_MOTION_DDOT":0},{"OBJECT_NAME":"ONEWEB-0365","OBJECT_ID":"2021-090N","EPOCH":"2026-03-02T17:45:28.903968","MEAN_MOTION":13.19721422,"ECCENTRICITY":0.0002037,"INCLINATION":87.9251,"RA_OF_ASC_NODE":326.1623,"ARG_OF_PERICENTER":76.608,"MEAN_ANOMALY":283.5279,"EPHEMERIS_TYPE":0,"CLASSIFICATION_TYPE":"U","NORAD_CAT_ID":49291,"ELEMENT_SET_NO":999,"REV_AT_EPOCH":21238,"BSTAR":0.0017226,"MEAN_MOTION_DOT":7.03e-6,"MEAN_MOTION_DDOT":0},{"OBJECT_NAME":"ONEWEB-0366","OBJECT_ID":"2021-090P","EPOCH":"2026-03-02T17:14:59.794368","MEAN_MOTION":13.1450211,"ECCENTRICITY":0.0001655,"INCLINATION":87.8991,"RA_OF_ASC_NODE":310.9545,"ARG_OF_PERICENTER":78.3375,"MEAN_ANOMALY":281.794,"EPHEMERIS_TYPE":0,"CLASSIFICATION_TYPE":"U","NORAD_CAT_ID":49292,"ELEMENT_SET_NO":999,"REV_AT_EPOCH":21357,"BSTAR":-0.00055889,"MEAN_MOTION_DOT":-1.94e-6,"MEAN_MOTION_DDOT":0},{"OBJECT_NAME":"ONEWEB-0367","OBJECT_ID":"2021-090Q","EPOCH":"2026-03-02T15:34:33.281184","MEAN_MOTION":13.20772408,"ECCENTRICITY":0.0001762,"INCLINATION":87.9185,"RA_OF_ASC_NODE":295.7099,"ARG_OF_PERICENTER":87.3772,"MEAN_ANOMALY":272.7563,"EPHEMERIS_TYPE":0,"CLASSIFICATION_TYPE":"U","NORAD_CAT_ID":49293,"ELEMENT_SET_NO":999,"REV_AT_EPOCH":21576,"BSTAR":3.7002e-5,"MEAN_MOTION_DOT":2.8e-7,"MEAN_MOTION_DDOT":0},{"OBJECT_NAME":"ONEWEB-0368","OBJECT_ID":"2021-090R","EPOCH":"2026-03-02T16:45:00.403776","MEAN_MOTION":13.20772733,"ECCENTRICITY":8.82e-5,"INCLINATION":87.9174,"RA_OF_ASC_NODE":295.7224,"ARG_OF_PERICENTER":95.8829,"MEAN_ANOMALY":264.2405,"EPHEMERIS_TYPE":0,"CLASSIFICATION_TYPE":"U","NORAD_CAT_ID":49294,"ELEMENT_SET_NO":999,"REV_AT_EPOCH":21692,"BSTAR":-8.4351e-6,"MEAN_MOTION_DOT":1.0e-7,"MEAN_MOTION_DDOT":0},{"OBJECT_NAME":"ONEWEB-0369","OBJECT_ID":"2021-090S","EPOCH":"2026-03-02T17:38:40.331328","MEAN_MOTION":13.1972561,"ECCENTRICITY":0.0001646,"INCLINATION":87.924,"RA_OF_ASC_NODE":326.1821,"ARG_OF_PERICENTER":80.6738,"MEAN_ANOMALY":279.4581,"EPHEMERIS_TYPE":0,"CLASSIFICATION_TYPE":"U","NORAD_CAT_ID":49295,"ELEMENT_SET_NO":999,"REV_AT_EPOCH":21237,"BSTAR":0.00010129,"MEAN_MOTION_DOT":5.3e-7,"MEAN_MOTION_DDOT":0},{"OBJECT_NAME":"ONEWEB-0370","OBJECT_ID":"2021-090T","EPOCH":"2026-03-02T15:48:12.244320","MEAN_MOTION":13.20771347,"ECCENTRICITY":0.0001921,"INCLINATION":87.9181,"RA_OF_ASC_NODE":295.7093,"ARG_OF_PERICENTER":82.3893,"MEAN_ANOMALY":277.7459,"EPHEMERIS_TYPE":0,"CLASSIFICATION_TYPE":"U","NORAD_CAT_ID":49296,"ELEMENT_SET_NO":999,"REV_AT_EPOCH":21580,"BSTAR":-4.579e-6,"MEAN_MOTION_DOT":1.1e-7,"MEAN_MOTION_DDOT":0},{"OBJECT_NAME":"ONEWEB-0371","OBJECT_ID":"2021-090U","EPOCH":"2026-03-02T17:50:02.727168","MEAN_MOTION":13.19725077,"ECCENTRICITY":0.0001795,"INCLINATION":87.9244,"RA_OF_ASC_NODE":326.1696,"ARG_OF_PERICENTER":81.6637,"MEAN_ANOMALY":278.4699,"EPHEMERIS_TYPE":0,"CLASSIFICATION_TYPE":"U","NORAD_CAT_ID":49297,"ELEMENT_SET_NO":999,"REV_AT_EPOCH":21241,"BSTAR":8.4642e-5,"MEAN_MOTION_DOT":4.7e-7,"MEAN_MOTION_DDOT":0},{"OBJECT_NAME":"ONEWEB-0372","OBJECT_ID":"2021-090V","EPOCH":"2026-03-02T17:21:11.477664","MEAN_MOTION":13.2077148,"ECCENTRICITY":0.0001566,"INCLINATION":87.9185,"RA_OF_ASC_NODE":295.6965,"ARG_OF_PERICENTER":86.1562,"MEAN_ANOMALY":273.975,"EPHEMERIS_TYPE":0,"CLASSIFICATION_TYPE":"U","NORAD_CAT_ID":49298,"ELEMENT_SET_NO":999,"REV_AT_EPOCH":21578,"BSTAR":-0.00014178,"MEAN_MOTION_DOT":-4.5e-7,"MEAN_MOTION_DDOT":0},{"OBJECT_NAME":"ONEWEB-0373","OBJECT_ID":"2021-090W","EPOCH":"2026-03-02T16:10:54.600384","MEAN_MOTION":13.20770633,"ECCENTRICITY":0.0001646,"INCLINATION":87.9172,"RA_OF_ASC_NODE":295.7126,"ARG_OF_PERICENTER":79.4068,"MEAN_ANOMALY":280.7251,"EPHEMERIS_TYPE":0,"CLASSIFICATION_TYPE":"U","NORAD_CAT_ID":49299,"ELEMENT_SET_NO":999,"REV_AT_EPOCH":21696,"BSTAR":-0.00027235,"MEAN_MOTION_DOT":-9.8e-7,"MEAN_MOTION_DDOT":0},{"OBJECT_NAME":"ONEWEB-0374","OBJECT_ID":"2021-090X","EPOCH":"2026-03-02T16:56:43.418976","MEAN_MOTION":13.14500962,"ECCENTRICITY":0.000124,"INCLINATION":87.9001,"RA_OF_ASC_NODE":310.9407,"ARG_OF_PERICENTER":64.7976,"MEAN_ANOMALY":295.3283,"EPHEMERIS_TYPE":0,"CLASSIFICATION_TYPE":"U","NORAD_CAT_ID":49300,"ELEMENT_SET_NO":999,"REV_AT_EPOCH":21357,"BSTAR":-0.00037113,"MEAN_MOTION_DOT":-1.25e-6,"MEAN_MOTION_DDOT":0}]
