ONEWEB-0358             
1 49284U 21090F   26061.66636624  .00000122  00000+0  26750-3 0  9990
2 49284  87.9184 295.7044 0001597  78.1844 281.9468 13.20771905216496
ONEWEB-0359             
1 49285U 21090G   26061.66320413  .00000082  00000+0  16923-3 0  9993
2 49285  87.9185 295.7018 0001816  77.1574 282.9762 13.20770008216471
ONEWEB-0360             
1 49286U 21090H   26061.65372642  .00000004  00000+0 -23067-4 0  9997
2 49286  87.9182 295.7110 0001744  80.4270 279.7060 13.20772781215780
ONEWEB-0361             
1 49287U 21090J   26061.71054907  .00000095  00000+0  20078-3 0  9993
2 49287  87.9183 295.6968 0001480  78.1124 282.0175 13.20772577216240
ONEWEB-0362             
1 49288U 21090K   26061.73045039  .00000001  00000+0 -30952-4 0  9993
2 49288  87.9238 326.1858 0001927  83.8714 276.2638 13.19725884212875
ONEWEB-0363             
1 49289U 21090L   26061.65059054  .00000040  00000+0  66548-4 0  9999
2 49289  87.9183 295.7095 0001390  72.2181 287.9104 13.20773441216249
ONEWEB-0364             
1 49290U 21090M   26061.68846023  .00000106  00000+0  22773-3 0  9998
2 49290  87.9171 295.7174 0001544  80.0991 280.0316 13.20771866217387
ONEWEB-0365             
1 49291U 21090N   26061.73991787  .00000703  00000+0  17226-2 0  9992
2 49291  87.9251 326.1623 0002037  76.6080 283.5279 13.19721422212385
ONEWEB-0366             
1 49292U 21090P   26061.71874762 -.00000194  00000+0 -55889-3 0  9998
2 49292  87.8991 310.9545 0001655  78.3375 281.7940 13.14502110213574
ONEWEB-0367             
1 49293U 21090Q   26061.64899631  .00000028  00000+0  37002-4 0  9995
2 49293  87.9185 295.7099 0001762  87.3772 272.7563 13.20772408215765
ONEWEB-0368             
1 49294U 21090R   26061.69792134  .00000010  00000+0 -84351-5 0  9993
2 49294  87.9174 295.7224 0000882  95.8829 264.2405 13.20772733216924
ONEWEB-0369             
1 49295U 21090S   26061.73518902  .00000053  00000+0  10129-3 0  9994
2 49295  87.9240 326.1821 0001646  80.6738 279.4581 13.19725610212379
ONEWEB-0370             
1 49296U 21090T   26061.65847505  .00000011  00000+0 -45790-5 0  9999
2 49296  87.9181 295.7093 0001921  82.3893 277.7459 13.20771347215809
ONEWEB-0371             
1 49297U 21090U   26061.74308712  .00000047  00000+0  84642-4 0  9998
2 49297  87.9244 326.1696 0001795  81.6637 278.4699 13.19725077212410
ONEWEB-0372             
1 49298U 21090V   26061.72304951 -.00000045  00000+0 -14178-3 0  9994
2 49298  87.9185 295.6965 0001566  86.1562 273.9750 13.20771480215789
ONEWEB-0373             
1 49299U 21090W   26061.67424306 -.00000098  00000+0 -27235-3 0  9992
2 49299  87.9172 295.7126 0001646  79.4068 280.7251 13.20770633216963
ONEWEB-0374             
1 49300U 21090X   26061.70605809 -.00000125  00000+0 -37113-3 0  9995
2 49300  87.9001 310.9407 0001240  64.7976 295.3283 13.14500962213574
